NORAD_CAT_ID,OBJECT_NAME,OBJECT_TYPE,EPOCH,MEAN_MOTION,ECCENTRICITY,INCLINATION,RA_OF_ASC_NODE,ARG_OF_PERICENTER,MEAN_ANOMALY,BSTAR,MEAN_MOTION_DOT,MEAN_MOTION_DDOT,TLE_LINE0,TLE_LINE1,TLE_LINE2,SEMIMAJOR_AXIS,PERIOD,APOGEE,PERIGEE,DECAYED
49737.0,STARLINK-3225,PAYLOAD,2023-11-11 09:46:46,15.08850849,0.0001503,53.2173,1.6965,96.3313,263.785,3.1857e-05,2.19e-06,0.0,0 STARLINK-3225,1 49737U 21115P   23315.40748667  .00000219  00000-0  31857-4 0  9996,2 49737  53.2173   1.6965 0001503  96.3313 263.7850 15.08850849107326,6917.847,95.437,540.752,538.672,0.0
49737.0,STARLINK-3225,PAYLOAD,2023-11-12 03:16:02,15.08833913,0.0001469,53.2173,358.4259,96.6143,263.5017,5.2553e-05,5.48e-06,0.0,0 STARLINK-3225,1 49737U 21115P   23316.13613480  .00000548  00000-0  52553-4 0  9992,2 49737  53.2173 358.4259 0001469  96.6143 263.5017 15.08833913108541,6917.899,95.438,540.78,538.748,0.0
49737.0,STARLINK-3225,PAYLOAD,2023-11-12 09:37:34,15.08842671,0.0001502,53.2184,357.237,97.1568,262.9595,4.1155e-05,3.67e-06,0.0,0 STARLINK-3225,1 49737U 21115P   23316.40109227  .00000367  00000-0  41155-4 0  9996,2 49737  53.2184 357.2370 0001502  97.1568 262.9595 15.08842671107475,6917.872,95.437,540.776,538.698,0.0
49737.0,STARLINK-3225,PAYLOAD,2023-11-13 09:28:20,15.08852236,0.0001619,53.2185,352.7771,100.2736,259.8439,0.00021496,3.136e-05,0.0,0 STARLINK-3225,1 49737U 21115P   23317.39468217  .00003136  00000-0  21496-3 0  9994,2 49737  53.2185 352.7771 0001619 100.2736 259.8439 15.08852236108733,6917.843,95.437,540.828,538.588,0.0
49737.0,STARLINK-3225,PAYLOAD,2023-11-14 02:57:35,15.08839723,0.0001654,53.2177,349.5068,90.3353,269.7828,0.00010488,1.382e-05,0.0,0 STARLINK-3225,1 49737U 21115P   23318.12333099  .00001382  00000-0  10488-3 0  9995,2 49737  53.2177 349.5068 0001654  90.3353 269.7828 15.08839723108840,6917.881,95.438,540.89,538.602,0.0
49737.0,STARLINK-3225,PAYLOAD,2023-11-14 10:54:31,15.0884095,0.0001597,53.2177,348.019,89.1071,271.0104,6.6799e-05,7.75e-06,0.0,0 STARLINK-3225,1 49737U 21115P   23318.45453054  .00000775  00000-0  66799-4 0  9997,2 49737  53.2177 348.0190 0001597  89.1071 271.0104 15.08840950107788,6917.877,95.437,540.847,538.638,0.0
49737.0,STARLINK-3225,PAYLOAD,2023-11-14 18:51:27,15.08839271,0.0001609,53.2175,346.5324,88.4591,271.6585,2.796e-05,1.57e-06,0.0,0 STARLINK-3225,1 49737U 21115P   23318.78573182  .00000157  00000-0  27960-4 0  9999,2 49737  53.2175 346.5324 0001609  88.4591 271.6585 15.08839271107830,6917.883,95.438,540.861,538.635,0.0
49737.0,STARLINK-3225,PAYLOAD,2023-11-15 10:45:18,15.08835075,0.0001829,53.2182,343.5598,94.4168,265.7033,-0.00010669,-1.985e-05,0.0,0 STARLINK-3225,1 49737U 21115P   23319.44813585 -.00001985  00000-0 -10669-3 0  9996,2 49737  53.2182 343.5598 0001829  94.4168 265.7033 15.08835075109044,6917.895,95.438,541.026,538.495,0.0
49737.0,STARLINK-3225,PAYLOAD,2023-11-16 09:00:42,15.08839711,0.0001683,53.2178,339.3946,95.7908,264.3276,0.00014566,2.031e-05,0.0,0 STARLINK-3225,1 49737U 21115P   23320.37549673  .00002031  00000-0  14566-3 0  9995,2 49737  53.2178 339.3946 0001683  95.7908 264.3276 15.08839711108070,6917.881,95.438,540.911,538.582,0.0
49737.0,STARLINK-3225,PAYLOAD,2023-11-16 18:33:01,15.08838712,0.000176,53.218,337.6109,86.359,273.7604,0.00011044,1.47e-05,0.0,0 STARLINK-3225,1 49737U 21115P   23320.77293918  .00001470  00000-0  11044-3 0  9991,2 49737  53.2180 337.6109 0001760  86.3590 273.7604 15.08838712109243,6917.884,95.438,540.967,538.532,0.0
49737.0,STARLINK-3225,PAYLOAD,2023-11-17 08:51:30,15.08838378,0.0001686,53.2175,334.9347,105.4444,254.6734,0.00015693,2.21e-05,0.0,0 STARLINK-3225,1 49737U 21115P   23321.36910034  .00002210  00000-0  15693-3 0  9999,2 49737  53.2175 334.9347 0001686 105.4444 254.6734 15.08838378108226,6917.885,95.438,540.917,538.584,0.0
49737.0,STARLINK-3225,PAYLOAD,2023-11-17 18:23:48,15.08842528,0.0001576,53.2176,333.151,99.6014,260.5157,0.00010474,1.379e-05,0.0,0 STARLINK-3225,1 49737U 21115P   23321.76653879  .00001379  00000-0  10474-3 0  9991,2 49737  53.2176 333.1510 0001576  99.6014 260.5157 15.08842528108288,6917.873,95.437,540.828,538.647,0.0
49737.0,STARLINK-3225,PAYLOAD,2023-11-18 10:17:39,15.08849004,0.0001606,53.218,330.1767,92.2568,267.8608,0.00017121,2.438e-05,0.0,0 STARLINK-3225,1 49737U 21115P   23322.42893433  .00002438  00000-0  17121-3 0  9990,2 49737  53.2180 330.1767 0001606  92.2568 267.8608 15.08849004109492,6917.853,95.437,540.829,538.607,0.0
49737.0,STARLINK-3225,PAYLOAD,2023-11-18 18:14:36,15.08840663,0.0001678,53.2187,328.6866,95.4452,264.6732,8.1925e-05,1.016e-05,0.0,0 STARLINK-3225,1 49737U 21115P   23322.76014048  .00001016  00000-0  81925-4 0  9999,2 49737  53.2187 328.6866 0001678  95.4452 264.6732 15.08840663109548,6917.878,95.438,540.904,538.583,0.0
49737.0,STARLINK-3225,PAYLOAD,2023-11-19 10:08:26,15.08848551,0.0001622,53.2188,325.7152,92.603,267.5148,0.00010271,1.347e-05,0.0,0 STARLINK-3225,1 49737U 21115P   23323.42253429  .00001347  00000-0  10271-3 0  9993,2 49737  53.2188 325.7152 0001622  92.6030 267.5148 15.08848551108530,6917.854,95.437,540.841,538.597,0.0
49737.0,STARLINK-3225,PAYLOAD,2023-11-20 03:37:41,15.08843081,0.000166,53.2178,322.4429,97.2733,262.8447,4.4452e-05,4.2e-06,0.0,0 STARLINK-3225,1 49737U 21115P   23324.15117708  .00000420  00000-0  44452-4 0  9993,2 49737  53.2178 322.4429 0001660  97.2733 262.8447 15.08843081109751,6917.871,95.437,540.884,538.588,0.0
49737.0,STARLINK-3225,PAYLOAD,2023-11-20 11:34:36,15.08851205,0.000163,53.2183,320.9562,95.1463,264.9715,4.0285e-05,3.53e-06,0.0,0 STARLINK-3225,1 49737U 21115P   23324.48237160  .00000353  00000-0  40285-4 0  9999,2 49737  53.2183 320.9562 0001630  95.1463 264.9715 15.08851205108692,6917.846,95.437,540.839,538.584,0.0
49737.0,STARLINK-3225,PAYLOAD,2023-11-21 03:28:28,15.08839232,0.0001692,53.2182,317.9832,97.6726,262.4458,4.1047e-05,3.65e-06,0.0,0 STARLINK-3225,1 49737U 21115P   23325.14478004  .00000365  00000-0  41047-4 0  9997,2 49737  53.2182 317.9832 0001692  97.6726 262.4458 15.08839232109902,6917.883,95.438,540.918,538.577,0.0
49737.0,STARLINK-3225,PAYLOAD,2023-11-21 06:39:15,15.08843133,0.0001604,53.2186,317.3897,92.7714,267.3462,6.541e-05,7.53e-06,0.0,0 STARLINK-3225,1 49737U 21115P   23325.27725802  .00000753  00000-0  65410-4 0  9993,2 49737  53.2186 317.3897 0001604  92.7714 267.3462 15.08843133108810,6917.871,95.437,540.845,538.626,0.0
49737.0,STARLINK-3225,PAYLOAD,2023-11-22 06:30:01,15.08850165,0.000163,53.2176,312.9305,93.0692,267.0487,0.00022632,3.317e-05,0.0,0 STARLINK-3225,1 49737U 21115P   23326.27085509  .00003317  00000-0  22632-3 0  9994,2 49737  53.2176 312.9305 0001630  93.0692 267.0487 15.08850165110070,6917.849,95.437,540.842,538.587,0.0
49737.0,STARLINK-3225,PAYLOAD,2023-11-22 20:48:30,15.08840743,0.000172,53.2177,310.252,102.4673,257.6512,9.6438e-05,1.247e-05,0.0,0 STARLINK-3225,1 49737U 21115P   23326.86701699  .00001247  00000-0  96438-4 0  9990,2 49737  53.2177 310.2520 0001720 102.4673 257.6512 15.08840743109056,6917.878,95.438,540.933,538.553,0.0
49737.0,STARLINK-3225,PAYLOAD,2023-11-23 03:10:03,15.08838442,0.0001718,53.2181,309.065,102.9912,257.1272,2.3835e-05,9.1e-07,0.0,0 STARLINK-3225,1 49737U 21115P   23327.13198013  .00000091  00000-0  23835-4 0  9998,2 49737  53.2181 309.0650 0001718 102.9912 257.1272 15.08838442110209,6917.885,95.438,540.939,538.562,0.0
49737.0,STARLINK-3225,PAYLOAD,2023-11-23 07:56:12,15.08841864,0.0001612,53.218,308.1727,111.8163,248.3,5.1027e-05,5.24e-06,0.0,0 STARLINK-3225,1 49737U 21115P   23327.33069630  .00000524  00000-0  51027-4 0  9997,2 49737  53.2180 308.1727 0001612 111.8163 248.3000 15.08841864109125,6917.875,95.437,540.855,538.625,0.0
49737.0,STARLINK-3225,PAYLOAD,2023-11-24 03:00:50,15.08830794,0.0001799,53.2183,304.6024,119.0582,241.059,-7.8004e-05,-1.529e-05,0.0,0 STARLINK-3225,1 49737U 21115P   23328.12558492 -.00001529  00000-0 -78004-4 0  9996,2 49737  53.2183 304.6024 0001799 119.0582 241.0590 15.08830794110351,6917.909,95.438,541.018,538.529,0.0
49737.0,STARLINK-3225,PAYLOAD,2023-11-24 07:46:59,15.08840455,0.0001701,53.2175,303.7104,101.1042,259.0142,3.8928e-05,3.32e-06,0.0,0 STARLINK-3225,1 49737U 21115P   23328.32430242  .00000332  00000-0  38928-4 0  9990,2 49737  53.2175 303.7104 0001701 101.1042 259.0142 15.08840455110387,6917.879,95.438,540.921,538.567,0.0
49737.0,STARLINK-3225,PAYLOAD,2023-11-24 22:05:28,15.08836498,0.0001661,53.2168,301.0352,100.2509,259.867,0.00011797,1.59e-05,0.0,0 STARLINK-3225,1 49737U 21115P   23328.92046740  .00001590  00000-0  11797-3 0  9993,2 49737  53.2168 301.0352 0001661 100.2509 259.8670 15.08836498109360,6917.891,95.438,540.905,538.607,0.0
49737.0,STARLINK-3225,PAYLOAD,2023-11-25 06:02:23,15.08843718,0.0001692,53.2178,299.5492,92.6266,267.492,0.00022852,3.351e-05,0.0,0 STARLINK-3225,1 49737U 21115P   23329.25166585  .00003351  00000-0  22852-3 0  9991,2 49737  53.2178 299.5492 0001692  92.6266 267.4920 15.08843718109417,6917.869,95.437,540.905,538.564,0.0
49737.0,STARLINK-3225,PAYLOAD,2023-11-25 21:56:15,15.08851512,0.0001885,53.2182,296.5769,79.5494,280.5711,0.00026434,3.923e-05,0.0,0 STARLINK-3225,1 49737U 21115P   23329.91406358  .00003923  00000-0  26434-3 0  9994,2 49737  53.2182 296.5769 0001885  79.5494 280.5711 15.08851512109513,6917.845,95.437,541.014,538.406,0.0
49737.0,STARLINK-3225,PAYLOAD,2023-11-26 02:42:24,15.08857386,0.0001361,53.2183,295.6865,74.934,285.1803,0.00033822,5.101e-05,0.0,0 STARLINK-3225,1 49737U 21115P   23330.11277895  .00005101  00000-0  33822-3 0  9999,2 49737  53.2183 295.6865 0001361  74.9340 285.1803 15.08857386110654,6917.827,95.436,540.634,538.751,0.0
49737.0,STARLINK-3225,PAYLOAD,2023-11-26 04:17:47,15.08863737,0.0001643,53.2171,295.3842,80.3292,279.7886,0.00053398,8.226e-05,0.0,0 STARLINK-3225,1 49737U 21115P   23330.17901778  .00008226  00000-0  53398-3 0  9990,2 49737  53.2171 295.3842 0001643  80.3292 279.7886 15.08863737109557,6917.808,95.436,540.809,538.536,0.0
